[{"OBJECT_NAME":"BANDWAGON-2 OBJECT D","OBJECT_ID":"2024-247D","EPOCH":"2026-03-09T12:32:33.670752","MEAN_MOTION":15.29076102,"ECCENTRICITY":0.00034883,"INCLINATION":44.9954,"RA_OF_ASC_NODE":115.671,"ARG_OF_PERICENTER":351.1453,"MEAN_ANOMALY":8.9368,"EPHEMERIS_TYPE":0,"CLASSIFICATION_TYPE":"U","NORAD_CAT_ID":62380,"ELEMENT_SET_NO":999,"REV_AT_EPOCH":6773,"BSTAR":0.00040119131,"MEAN_MOTION_DOT":0.00011259,"MEAN_MOTION_DDOT":0},{"OBJECT_NAME":"STARLINK-34462","OBJECT_ID":"2025-133X","EPOCH":"2026-03-09T12:36:43.204320","MEAN_MOTION":15.30226298,"ECCENTRICITY":0.0001182,"INCLINATION":53.1596,"RA_OF_ASC_NODE":117.5291,"ARG_OF_PERICENTER":222.9201,"MEAN_ANOMALY":137.1708,"EPHEMERIS_TYPE":0,"CLASSIFICATION_TYPE":"U","NORAD_CAT_ID":64493,"ELEMENT_SET_NO":999,"REV_AT_EPOCH":4116,"BSTAR":0.0013454,"MEAN_MOTION_DOT":0.00039735,"MEAN_MOTION_DDOT":0}]
