BANDWAGON-2 OBJECT D    
1 62380U 24247D   26068.52261193  .00011259  00000+0  40119-3 0  9994
2 62380  44.9954 115.6710 0003488 351.1453   8.9368 15.29076102 67732
STARLINK-34462          
1 64493U 25133X   26068.52550005  .00039735  00000+0  13454-2 0  9999
2 64493  53.1596 117.5291 0001182 222.9201 137.1708 15.30226298 41160
